KUIPER-00061            
1 64521U 25134X   25260.25009259 -.00895374  00000+0 -49599-1 0  9994
2 64521  51.8900 278.5847 0008237  55.8341 115.8546 15.15947237  5009
KUIPER-00062            
1 64522U 25134Y   25259.49084065  .00009612  00000+0  65020-3 0  9996
2 64522  51.8856 288.0743 0010781  65.6533 294.5565 15.07088306 14213
KUIPER-00063            
1 64523U 25134Z   25260.25009259 -.00090630  00000+0 -12094-1 0  9998
2 64523  51.9219 284.8986 0004434  32.9037 252.2051 14.79665534  5049
KUIPER-00064            
1 64524U 25134AA  25260.25009259 -.00047809  00000+0 -44091-2 0  9992
2 64524  51.8921 282.4383 0006512 133.2911  35.3573 14.94303638  5173
KUIPER-00065            
1 64525U 25134AB  25260.25009259 -.00030693  00000+0 -40235-2 0  9992
2 64525  51.9247 287.1446 0011682  70.9953  41.6965 14.79793911  5811
KUIPER-00066            
1 64526U 25134AC  25260.05618734  .00012698  00000+0  62913-3 0  9996
2 64526  51.8854 282.0975 0006118  50.7716 309.3805 15.18080116 14342
KUIPER-00069            
1 64816U 25151A   25260.23809226  .00045576  00000+0  12338-2 0  9991
2 64816  51.8802 343.6791 0007497  11.1112 349.0039 15.37205292 10856
KUIPER-00070            
1 64817U 25151B   25260.25009259 -.00012710  00000+0 -15244-2 0  9997
2 64817  51.8976 352.4415 0010308  51.4267  54.4738 14.82949045  4602
